STARLINK-36597          
1 67613U 26018AA  26047.17531901  .00250542  00000+0  12687-2 0  9999
2 67613  97.2853 111.9575 0001370 106.8135 253.3284 15.80865649  3926
NEONSAT-1A              
1 67614U 26019A   26047.01062704  .00002871  00000+0  19234-3 0  9990
2 67614  97.4097 171.3679 0012089 246.2086 113.7875 15.07606044  2551
ELECTRON KICK STAGE R/B 
1 67616U 26019C   26046.78068055  .00455134  61457-4  20771-2 0  9999
2 67616  97.4043 172.4350 0173982 202.0042 157.3685 15.64622392  2600
STARLINK-36548          
1 67617U 26020A   26047.07594977  .00183866  00000+0  11070-2 0  9996
2 67617  42.9972 273.6429 0002402 240.5571 119.5059 15.76379875  2670
STARLINK-36601          
1 67618U 26020B   26046.92728485  .00416140  00000+0  18737-2 0  9994
2 67618  42.9974 274.2357 0002092 295.7741  64.2915 15.82148263  2653
STARLINK-36119          
1 67619U 26020C   26047.07375379  .00312459  00000+0  18453-2 0  9995
2 67619  42.9970 273.6253 0002032 280.1412  79.9228 15.76446835  2676
STARLINK-36607          
1 67620U 26020D   26046.92550505  .00379514  00000+0  17153-2 0  9997
2 67620  42.9974 274.2198 0001434 271.7843  88.2864 15.82161743  2652
STARLINK-36615          
1 67621U 26020E   26046.67362175  .00459640  00000+0  20572-2 0  9992
2 67621  42.9960 275.7726 0001554 246.0666 114.0043 15.82164708  2619
STARLINK-36614          
1 67622U 26020F   26047.06937973  .00161889  00000+0  97782-3 0  9994
2 67622  42.9973 273.5901 0002278 256.2368 103.8248 15.76375262  2672
STARLINK-36600          
1 67623U 26020G   26047.07157001  .00180387  00000+0  10869-2 0  9996
2 67623  42.9967 273.6076 0002008 269.5871  90.4768 15.76373887  2676
STARLINK-36439          
1 67624U 26020H   26047.16667824  .00102320  00000+0  62452-3 0  9993
2 67624  42.9981 272.8759 0001996 306.9040 295.7041 15.76338108  3932
STARLINK-36438          
1 67625U 26020J   26047.06718946  .00250707  00000+0  14945-2 0  9991
2 67625  42.9970 273.5721 0002156 279.7103  80.3523 15.76410062  2677
STARLINK-36436          
1 67626U 26020K   26046.66902156  .00377667  00000+0  17068-2 0  9999
2 67626  42.9959 275.7357 0001381 272.6811  87.3903 15.82167759  2613
STARLINK-36502          
1 67627U 26020L   26046.66975289  .00368474  00000+0  16677-2 0  9998
2 67627  42.9958 275.7424 0001879 227.8567 132.2145 15.82161003  2614
STARLINK-36532          
1 67628U 26020M   26047.04660726  .00223374  00000+0  10354-2 0  9994
2 67628  42.9973 273.4043 0001988 275.7804  84.2841 15.82031884  2679
STARLINK-36367          
1 67629U 26020N   26045.97398618  .00321714  00000+0  15198-2 0  9991
2 67629  42.9980 279.9878 0004785 325.2326  34.8233 15.81353248  2501
STARLINK-36416          
1 67630U 26020P   26047.06500080  .00215069  00000+0  12887-2 0  9990
2 67630  42.9969 273.5549 0002428 287.8753  72.1851 15.76396089  2677
STARLINK-36527          
1 67631U 26020Q   26046.66670037  .00185093  00000+0  85719-3 0  9994
2 67631  42.9952 275.7167 0002352 218.1331 141.9375 15.82156455  2613
STARLINK-36633          
1 67632U 26020R   26046.66596506  .00406790  00000+0  18325-2 0  9991
2 67632  42.9965 275.7114 0001692 243.8503 116.2195 15.82162149  2614
STARLINK-36637          
1 67633U 26020S   26047.06280775  .00109655  00000+0  66809-3 0  9996
2 67633  42.9971 273.5375 0002423 249.6646 110.3963 15.76350832  2677
STARLINK-36617          
1 67634U 26020T   26046.66467721  .00774463  00000+0  32890-2 0  9997
2 67634  42.9967 275.7008 0003793 226.7762 133.2793 15.82490694  2613
STARLINK-36627          
1 67635U 26020U   26047.05624344  .00056557  00000+0  34858-3 0  9992
2 67635  42.9978 273.4824 0002269 245.6735 114.3898 15.76326462  2670
STARLINK-36624          
1 67636U 26020V   26046.91535726  .00186568  00000+0  86801-3 0  9993
2 67636  42.9968 274.1378 0001409 272.2251  87.8460 15.82054955  2655
STARLINK-36610          
1 67637U 26020W   26046.93170776  .00306003  00000+0  18080-2 0  9997
2 67637  42.9976 274.2706 0001920 282.4677  77.5978 15.76455373  2656
STARLINK-36599          
1 67638U 26020X   26047.10247798  .00241826  00000+0  11207-2 0  9992
2 67638  42.9967 272.9569 0001697 264.0547  96.0131 15.81987698  2688
STARLINK-36595          
1 67639U 26020Y   26047.10169186  .00276894  00000+0  12767-2 0  9992
2 67639  42.9964 272.9521 0001730 320.1449  39.9296 15.82003085  2685
STARLINK-36570          
1 67640U 26020Z   26047.05186549  .00069083  00000+0  42440-3 0  9992
2 67640  42.9982 273.4459 0002031 264.8877  95.1761 15.76332076  2675
STARLINK-36514          
1 67641U 26020AA  26046.97312744  .00332540  00000+0  15176-2 0  9997
2 67641  42.9971 273.7083 0002102 287.5900  72.4742 15.82076642  2665
STARLINK-36556          
1 67642U 26020AB  26045.89986705  .00445320  00000+0  20883-2 0  9994
2 67642  42.9973 280.2837 0000965 131.0329 229.0626 15.81195695  2492
STARLINK-36533          
1 67643U 26020AC  26046.92733343  .00227581  00000+0  13610-2 0  9995
2 67643  42.9970 274.2347 0001831 284.6112  75.4554 15.76405084  2658
STARLINK-36623          
1 67644U 26020AD  26047.04748831  .00167258  00000+0  10085-2 0  9995
2 67644  42.9975 273.4091 0002089 253.8716 106.1924 15.76399194  2674
STARLINK-36619          
1 67645U 26020AE  26047.16667824  .00276431  00000+0  16526-2 0  9991
2 67645  42.9979 272.6564 0001942 275.3057  54.4011 15.76271836  3933
ALSAT-3B                
1 67646U 26021A   26047.17178770  .00007599  00000+0  31967-3 0  9995
2 67646  97.4715 121.6014 0012107 205.1440 154.9209 15.23615594  2447
CZ-2C R/B               
1 67647U 26021B   26047.17485495  .00014144  00000+0  42670-3 0  9998
2 67647  97.6556 122.2108 0153560  86.0112 275.8662 15.23496081  2427
STARLINK-36719          
1 67648U 26022A   26047.16667824 -.00012402  00000+0 -82389-4 0  9996
2 67648  97.2837  80.0703 0001363  71.9519 154.0193 15.75192314  3433
STARLINK-36342          
1 67649U 26022B   26047.16667824 -.00052929  00000+0 -35586-3 0  9991
2 67649  97.2836  80.0714 0001018  89.1162 140.8496 15.75212046  3431
STARLINK-36703          
1 67650U 26022C   26047.16667824 -.00217744  00000+0 -14910-2 0  9998
2 67650  97.2834  80.0735 0001576  91.7303 144.2279 15.75273223  3430
STARLINK-36696          
1 67651U 26022D   26047.16667824 -.00037484  00000+0 -25131-3 0  9998
2 67651  97.2833  80.0781 0001701  88.5976 157.3634 15.75209628  3439
STARLINK-36699          
1 67652U 26022E   26047.16667824 -.00019281  00000+0 -12863-3 0  9992
2 67652  97.2835  80.0800 0000972  75.3720 174.5951 15.75200516  3434
STARLINK-36694          
1 67653U 26022F   26047.16667824 -.00147879  00000+0 -10051-2 0  9994
2 67653  97.2834  80.0852 0001102  67.9977 193.9601 15.75252464  3434
STARLINK-36620          
1 67654U 26022G   26047.16667824 -.00054999  00000+0 -36970-3 0  9994
2 67654  97.2835  80.0855 0000702  68.2629 195.6900 15.75224810  3437
STARLINK-36720          
1 67655U 26022H   26047.16667824 -.00028664  00000+0 -19178-3 0  9996
2 67655  97.2834  80.0903 0001698  83.5035 190.4519 15.75208348  3434
STARLINK-36688          
1 67656U 26022J   26047.16667824 -.00033516  00000+0 -22447-3 0  9992
2 67656  97.2835  80.0913 0000984  86.2545 191.6990 15.75216512  3438
STARLINK-36706          
1 67657U 26022K   26047.16667824 -.00051800  00000+0 -34832-3 0  9990
2 67657  97.2833  80.0938 0001321  82.6730 203.3039 15.75203632  3407
STARLINK-36701          
1 67658U 26022L   26047.16667824 -.00069580  00000+0 -46894-3 0  9996
2 67658  97.2834  80.0970 0001118  81.8159 210.1529 15.75214654  3434
STARLINK-36642          
1 67659U 26022M   26047.16667824  .00012845  00000+0  86920-4 0  9992
2 67659  97.2828  80.1001 0001235  64.5083 233.4650 15.75173422  3438
STARLINK-36673          
1 67660U 26022N   26047.16667824 -.00200895  00000+0 -13717-2 0  9992
2 67660  97.2827  80.1024 0001270  75.5385 230.3984 15.75294249  3437
STARLINK-36674          
1 67661U 26022P   26047.16667824 -.01083040  00000+0 -78047-2 0  9992
2 67661  97.2837  80.1061 0001594  92.5829 220.9507 15.75983254  3438
STARLINK-36700          
1 67662U 26022Q   26047.16667824 -.01087539  00000+0 -78523-2 0  9999
2 67662  97.2818  80.1107 0001591  94.7720 230.8064 15.75949832  3432
STARLINK-36675          
1 67663U 26022R   26047.16667824 -.00501114  00000+0 -35144-2 0  9991
2 67663  97.2823  80.1075 0001636  89.2084 228.6427 15.75482049  3435
STARLINK-36404          
1 67664U 26022S   26047.16667824 -.01905894  00000+0 -13557-1 0  9999
2 67664  97.2812  80.1136 0001193  77.2617 257.3518 15.76982685  3408
STARLINK-36399          
1 67665U 26022T   26047.16667824 -.01810072  00000+0 -12866-1 0  9995
2 67665  97.2811  80.1163 0001288  80.8955 257.8931 15.76828197  3409
STARLINK-36365          
1 67666U 26022U   26047.16667824 -.01912030  00000+0 -13564-1 0  9999
2 67666  97.2806  80.1196 0001354  78.4537 268.0573 15.77052967  3437
STARLINK-36622          
1 67667U 26022V   26047.16667824 -.01884145  00000+0 -13049-1 0  9993
2 67667  97.2833  80.1239 0001236  76.4545 279.1591 15.77541948  3437
STARLINK-36625          
1 67668U 26022W   26047.16667824 -.01896633  00000+0 -13184-1 0  9999
2 67668  97.2833  80.1266 0001439  62.3587 301.3850 15.77477888  3430
STARLINK-36639          
1 67669U 26022X   26047.16667824 -.01968380  00000+0 -13490-1 0  9999
2 67669  97.2794  80.1297 0001470  68.2007 304.6643 15.77921703  3434
STARLINK-36596          
1 67670U 26022Y   26047.16667824 -.01965792  00000+0 -13058-1 0  9995
2 67670  97.2812  80.1329 0001320  63.1210 317.9510 15.78609524  3432
STARLINK-36297          
1 67671U 26022Z   26047.16667824 -.01963997  00000+0 -12945-1 0  9995
2 67671  97.2815  80.1376 0001501  78.5043 314.0697 15.78776810  3430
STARLINK-36616          
1 67672U 26022AA  26047.16667824 -.01969657  00000+0 -13327-1 0  9990
2 67672  97.2788  80.1353 0001357  67.3268 318.8453 15.78208598  3434
